ORBCOMM FM115 [+]       
1 41186U 15081H   24030.79870599  .00000930  00000+0  22595-3 0  9995
2 41186  46.9985 269.4982 0001112 272.0439  88.0320 14.60316631434143
ORBCOMM FM108 [+]       
1 41187U 15081J   24030.90533728  .00001437  00000+0  35919-3 0  9996
2 41187  47.0066 320.1331 0002005 174.5766 185.5141 14.56238404433396
ORBCOMM FM117 [+]       
1 41188U 15081K   24031.83182013  .00001411  00000+0  35349-3 0  9996
2 41188  47.0026 314.6994 0002674 188.1714 171.9128 14.56245689433625
ORBCOMM FM116 [+]       
1 41189U 15081L   24031.40962630  .00001454  00000+0  36303-3 0  9999
2 41189  47.0029  46.4989 0003321 275.6452  84.4054 14.56246766432323
